{
    "links": {
        "self": "http://www.neowsapp.com/rest/v1/neo/3702970?api_key=iIulBulltgU6a56xZRHN4H3l9WmuAYTsLGpBGhQ2"
    },
    "id": "3702970",
    "neo_reference_id": "3702970",
    "name": "(2014 YE14)",
    "designation": "2014 YE14",
    "nasa_jpl_url": "http://ssd.jpl.nasa.gov/sbdb.cgi?sstr=3702970",
    "absolute_magnitude_h": 27.2,
    "estimated_diameter": {
        "kilometers": {
            "estimated_diameter_min": 0.0096506147,
            "estimated_diameter_max": 0.0215794305
        },
        "meters": {
            "estimated_diameter_min": 9.6506146958,
            "estimated_diameter_max": 21.5794304844
        },
        "miles": {
            "estimated_diameter_min": 0.0059966121,
            "estimated_diameter_max": 0.0134088323
        },
        "feet": {
            "estimated_diameter_min": 31.6621227185,
            "estimated_diameter_max": 70.7986587106
        }
    },
    "is_potentially_hazardous_asteroid": false,
    "close_approach_data": [
        {
            "close_approach_date": "2014-12-18",
            "close_approach_date_full": "2014-Dec-18 20:07",
            "epoch_date_close_approach": 1418933220000,
            "relative_velocity": {
                "kilometers_per_second": "9.6600916846",
                "kilometers_per_hour": "34776.3300646442",
                "miles_per_hour": "21608.659089334"
            },
            "miss_distance": {
                "astronomical": "0.0321555069",
                "lunar": "12.5084921841",
                "kilometers": "4810395.341010303",
                "miles": "2989041.0612280614"
            },
            "orbiting_body": "Earth"
        },
        {
            "close_approach_date": "2090-06-04",
            "close_approach_date_full": "2090-Jun-04 23:28",
            "epoch_date_close_approach": 3800302080000,
            "relative_velocity": {
                "kilometers_per_second": "3.3024641374",
                "kilometers_per_hour": "11888.8708947577",
                "miles_per_hour": "7387.2820290232"
            },
            "miss_distance": {
                "astronomical": "1.5540347485",
                "lunar": "604.5195171665",
                "kilometers": "232480288.281585695",
                "miles": "144456552.598824791"
            },
            "orbiting_body": "Juptr"
        }
    ],
    "orbital_data": {
        "orbit_id": "5",
        "orbit_determination_date": "2017-04-06 08:36:44",
        "first_observation_date": "2014-12-23",
        "last_observation_date": "2014-12-30",
        "data_arc_in_days": 7,
        "observations_used": 27,
        "orbit_uncertainty": "8",
        "minimum_orbit_intersection": ".0139159",
        "jupiter_tisserand_invariant": "3.215",
        "epoch_osculation": "2457015.5",
        "eccentricity": ".6031056863082379",
        "semi_major_axis": "2.453120439028321",
        "inclination": "3.335577619707908",
        "ascending_node_longitude": "271.2155802014869",
        "orbital_period": "1403.384686643621",
        "perihelion_distance": ".9736295530513798",
        "perihelion_argument": "149.9376847222037",
        "aphelion_distance": "3.932611325005263",
        "perihelion_time": "2456991.282974396068",
        "mean_anomaly": "6.212216294212297",
        "mean_motion": ".2565226793666869",
        "equinox": "J2000",
        "orbit_class": {
            "orbit_class_type": "APO",
            "orbit_class_description": "Near-Earth asteroid orbits which cross the Earth’s orbit similar to that of 1862 Apollo",
            "orbit_class_range": "a (semi-major axis) > 1.0 AU; q (perihelion) < 1.017 AU"
        }
    },
    "is_sentry_object": false
}